[
    {
        "Altitude(m)": 610405.2981846007,
        "Argument of Periapsis(deg)": 0.0,
        "Eccentricity": 0.0,
        "Inclination(deg)": 60.0,
        "Latitude(deg)": 52.11120302770324,
        "Longitude(deg)": -152.52244700697196,
        "Mean Anomaly(deg)": 114.5455,
        "RAAN(deg)": 175.0,
        "Satellite Name": "Test1 777",
        "Satellite Number": 777,
        "Semi-Major Axis(m)": 6980739.136638005,
        "Time(s)": 0
    },
    {
        "Altitude(m)": 610321.8705723527,
        "Argument of Periapsis(deg)": 0.00010418945913296404,
        "Eccentricity": 0.0,
        "Inclination(deg)": 60.0,
        "Latitude(deg)": 51.74591658784076,
        "Longitude(deg)": -151.7535561156204,
        "Mean Anomaly(deg)": 115.16560614546182,
        "RAAN(deg)": 174.99957995086024,
        "Satellite Name": "Test1 777",
        "Satellite Number": 777,
        "Semi-Major Axis(m)": 6980739.136638005,
        "Time(s)": 10
    }
]